QIANFAN-81              
1 63167U 25046J   25280.57233766  .00000142  00000+0  20208-3 0  9997
2 63167  88.9809 326.7187 0012890 317.5817  42.4337 13.50984780 38552
QIANFAN-82              
1 63168U 25046K   25280.60539284  .00000171  00000+0  24636-3 0  9997
2 63168  88.9809 326.7589 0011260 327.4764  32.5692 13.50972686 38545
QIANFAN-83              
1 63169U 25046L   25280.57825296  .00000211  00000+0  25771-3 0  9991
2 63169  88.9809 326.6678 0012206 314.3102  45.7053 13.61960559 38596
QIANFAN-84              
1 63170U 25046M   25280.63384598  .00000115  00000+0  16039-3 0  9995
2 63170  88.9809 326.8889 0014095 321.8118  38.2033 13.50984913 38472
QIANFAN-85              
1 63171U 25046N   25280.63010359  .00000209  00000+0  30506-3 0  9996
2 63171  88.9808 326.7613 0011569 325.9723  34.0685 13.50969268 38547
QIANFAN-86              
1 63172U 25046P   25280.56426919  .00000051  00000+0  61046-4 0  9991
2 63172  88.9811 326.6286 0009585 332.7297  27.3350 13.50966253 38617
QIANFAN-87              
1 63173U 25046Q   25280.60950192  .00000185  00000+0  26806-3 0  9994
2 63173  88.9807 326.7381 0010148 326.0682  33.9819 13.50979199 38550
QIANFAN-88              
1 63174U 25046R   25280.62599291  .00000181  00000+0  26142-3 0  9995
2 63174  88.9809 326.6893 0010767 334.9051  25.1576 13.50972462 38587
